{
  "type": "FeatureCollection",
  "features": [
    {
      "type": "Feature",
      "properties": {
        "norad_id": 58701,
        "name": "TIANMU-1 16",
        "group": "weather",
        "lat": -69.42746074397213,
        "lon": -159.61000205493627,
        "alt_km": 497.32998525090716,
        "timestamp": "2025-12-25T03:55:55.949387+00:00",
        "meta_object_name": "TIANMU-1 16",
        "meta_object_id": "2024-004B",
        "meta_epoch": "2025-12-24T20:21:58.342752",
        "meta_mean_motion": 15.24591274,
        "meta_eccentricity": 0.0004406,
        "meta_inclination": 97.4569,
        "meta_ra_of_asc_node": 179.6518,
        "meta_arg_of_pericenter": 240.845,
        "meta_mean_anomaly": 119.2347,
        "meta_ephemeris_type": 0,
        "meta_classification_type": "U",
        "meta_norad_cat_id": 58701,
        "meta_element_set_no": 999,
        "meta_rev_at_epoch": 10919,
        "meta_bstar": 0.0003054,
        "meta_mean_motion_dot": 7.459e-05,
        "meta_mean_motion_ddot": 0,
        "tle_line1": "1 58701U 24004B   25358.84859193  .00007459  00000+0  30540-3 0  9990",
        "tle_line2": "2 58701  97.4569 179.6518 0004406 240.8450 119.2347 15.24591274109194"
      },
      "geometry": {
        "type": "Point",
        "coordinates": [
          -159.61000205493627,
          -69.42746074397213
        ]
      }
    },
    {
      "type": "Feature",
      "properties": {
        "norad_id": 58702,
        "name": "TIANMU-1 17",
        "group": "weather",
        "lat": 15.463625967787184,
        "lon": 178.30446287189153,
        "alt_km": 494.4817147272761,
        "timestamp": "2025-12-25T03:55:55.949397+00:00",
        "meta_object_name": "TIANMU-1 17",
        "meta_object_id": "2024-004C",
        "meta_epoch": "2025-12-24T19:59:17.469312",
        "meta_mean_motion": 15.24634444,
        "meta_eccentricity": 0.000357,
        "meta_inclination": 97.4602,
        "meta_ra_of_asc_node": 180.0523,
        "meta_arg_of_pericenter": 241.7114,
        "meta_mean_anomaly": 118.3763,
        "meta_ephemeris_type": 0,
        "meta_classification_type": "U",
        "meta_norad_cat_id": 58702,
        "meta_element_set_no": 999,
        "meta_rev_at_epoch": 10918,
        "meta_bstar": 0.00028619,
        "meta_mean_motion_dot": 6.993e-05,
        "meta_mean_motion_ddot": 0,
        "tle_line1": "1 58702U 24004C   25358.83284108  .00006993  00000+0  28619-3 0  9994",
        "tle_line2": "2 58702  97.4602 180.0523 0003570 241.7114 118.3763 15.24634444109181"
      },
      "geometry": {
        "type": "Point",
        "coordinates": [
          178.30446287189153,
          15.463625967787184
        ]
      }
    },
    {
      "type": "Feature",
      "properties": {
        "norad_id": 58703,
        "name": "TIANMU-1 18",
        "group": "weather",
        "lat": 71.88736522684007,
        "lon": 24.202053939348108,
        "alt_km": 486.3393719307651,
        "timestamp": "2025-12-25T03:55:55.949407+00:00",
        "meta_object_name": "TIANMU-1 18",
        "meta_object_id": "2024-004D",
        "meta_epoch": "2025-12-24T21:09:56.730240",
        "meta_mean_motion": 15.24617969,
        "meta_eccentricity": 0.000296,
        "meta_inclination": 97.4619,
        "meta_ra_of_asc_node": 180.2991,
        "meta_arg_of_pericenter": 238.1484,
        "meta_mean_anomaly": 121.9465,
        "meta_ephemeris_type": 0,
        "meta_classification_type": "U",
        "meta_norad_cat_id": 58703,
        "meta_element_set_no": 999,
        "meta_rev_at_epoch": 10919,
        "meta_bstar": 0.00027924,
        "meta_mean_motion_dot": 6.818e-05,
        "meta_mean_motion_ddot": 0,
        "tle_line1": "1 58703U 24004D   25358.88190660  .00006818  00000+0  27924-3 0  9993",
        "tle_line2": "2 58703  97.4619 180.2991 0002960 238.1484 121.9465 15.24617969109196"
      },
      "geometry": {
        "type": "Point",
        "coordinates": [
          24.202053939348108,
          71.88736522684007
        ]
      }
    },
    {
      "type": "Feature",
      "properties": {
        "norad_id": 58990,
        "name": "INSAT-3DS",
        "group": "weather",
        "lat": 0.026775393561659262,
        "lon": -124.9951251010031,
        "alt_km": 35782.17107054303,
        "timestamp": "2025-12-25T03:55:55.949419+00:00",
        "meta_object_name": "INSAT-3DS",
        "meta_object_id": "2024-033A",
        "meta_epoch": "2025-12-24T20:11:11.705280",
        "meta_mean_motion": 1.00271357,
        "meta_eccentricity": 0.0001245,
        "meta_inclination": 0.0597,
        "meta_ra_of_asc_node": 99.6283,
        "meta_arg_of_pericenter": 175.2991,
        "meta_mean_anomaly": 203.5912,
        "meta_ephemeris_type": 0,
        "meta_classification_type": "U",
        "meta_norad_cat_id": 58990,
        "meta_element_set_no": 999,
        "meta_rev_at_epoch": 4532,
        "meta_bstar": 0,
        "meta_mean_motion_dot": -1.35e-06,
        "meta_mean_motion_ddot": 0,
        "tle_line1": "1 58990U 24033A   25358.84110770 -.00000135  00000+0  00000+0 0  9992",
        "tle_line2": "2 58990   0.0597  99.6283 0001245 175.2991 203.5912  1.00271357 45329"
      },
      "geometry": {
        "type": "Point",
        "coordinates": [
          -124.9951251010031,
          0.026775393561659262
        ]
      }
    },
    {
      "type": "Feature",
      "properties": {
        "norad_id": 59051,
        "name": "METEOR-M2 4",
        "group": "weather",
        "lat": 40.00194287657974,
        "lon": -51.48481859397989,
        "alt_km": 813.2362327446745,
        "timestamp": "2025-12-25T03:55:55.949429+00:00",
        "meta_object_name": "METEOR-M2 4",
        "meta_object_id": "2024-039A",
        "meta_epoch": "2025-12-24T20:59:21.549408",
        "meta_mean_motion": 14.22403067,
        "meta_eccentricity": 0.0006403,
        "meta_inclination": 98.6784,
        "meta_ra_of_asc_node": 315.5941,
        "meta_arg_of_pericenter": 322.0543,
        "meta_mean_anomaly": 38.0183,
        "meta_ephemeris_type": 0,
        "meta_classification_type": "U",
        "meta_norad_cat_id": 59051,
        "meta_element_set_no": 999,
        "meta_rev_at_epoch": 9448,
        "meta_bstar": 3.6434e-05,
        "meta_mean_motion_dot": 3.7e-07,
        "meta_mean_motion_ddot": 0,
        "tle_line1": "1 59051U 24039A   25358.87455497  .00000037  00000+0  36434-4 0  9993",
        "tle_line2": "2 59051  98.6784 315.5941 0006403 322.0543  38.0183 14.22403067 94481"
      },
      "geometry": {
        "type": "Point",
        "coordinates": [
          -51.48481859397989,
          40.00194287657974
        ]
      }
    },
    {
      "type": "Feature",
      "properties": {
        "norad_id": 60133,
        "name": "GOES 19",
        "group": "weather",
        "lat": -0.009790832035719453,
        "lon": 77.7309594787219,
        "alt_km": 35788.182861668014,
        "timestamp": "2025-12-25T03:55:55.949441+00:00",
        "meta_object_name": "GOES 19",
        "meta_object_id": "2024-119A",
        "meta_epoch": "2025-12-24T17:52:28.634304",
        "meta_mean_motion": 1.00271268,
        "meta_eccentricity": 0.0001032,
        "meta_inclination": 0.0105,
        "meta_ra_of_asc_node": 183.5206,
        "meta_arg_of_pericenter": 138.3424,
        "meta_mean_anomaly": 324.5879,
        "meta_ephemeris_type": 0,
        "meta_classification_type": "U",
        "meta_norad_cat_id": 60133,
        "meta_element_set_no": 999,
        "meta_rev_at_epoch": 521,
        "meta_bstar": 0,
        "meta_mean_motion_dot": -2.27e-06,
        "meta_mean_motion_ddot": 0,
        "tle_line1": "1 60133U 24119A   25358.74477586 -.00000227  00000+0  00000+0 0  9991",
        "tle_line2": "2 60133   0.0105 183.5206 0001032 138.3424 324.5879  1.00271268  5210"
      },
      "geometry": {
        "type": "Point",
        "coordinates": [
          77.7309594787219,
          -0.009790832035719453
        ]
      }
    },
    {
      "type": "Feature",
      "properties": {
        "norad_id": 65815,
        "name": "FENGYUN 3H",
        "group": "weather",
        "lat": 11.768235059094003,
        "lon": 120.30480786188461,
        "alt_km": 826.6290576302026,
        "timestamp": "2025-12-25T03:55:55.949452+00:00",
        "meta_object_name": "FENGYUN 3H",
        "meta_object_id": "2025-219A",
        "meta_epoch": "2025-12-24T20:22:43.979232",
        "meta_mean_motion": 14.19907782,
        "meta_eccentricity": 8.35e-05,
        "meta_inclination": 98.6601,
        "meta_ra_of_asc_node": 298.1774,
        "meta_arg_of_pericenter": 108.631,
        "meta_mean_anomaly": 251.4958,
        "meta_ephemeris_type": 0,
        "meta_classification_type": "U",
        "meta_norad_cat_id": 65815,
        "meta_element_set_no": 999,
        "meta_rev_at_epoch": 1264,
        "meta_bstar": 6.35e-05,
        "meta_mean_motion_dot": 9.2e-07,
        "meta_mean_motion_ddot": 0,
        "tle_line1": "1 65815U 25219A   25358.84912013  .00000092  00000+0  63500-4 0  9993",
        "tle_line2": "2 65815  98.6601 298.1774 0000835 108.6310 251.4958 14.19907782 12645"
      },
      "geometry": {
        "type": "Point",
        "coordinates": [
          120.30480786188461,
          11.768235059094003
        ]
      }
    }
  ]
}